OBJECT_NAME,OBJECT_ID,EPOCH,MEAN_MOTION,ECCENTRICITY,INCLINATION,RA_OF_ASC_NODE,ARG_OF_PERICENTER,MEAN_ANOMALY,EPHEMERIS_TYPE,CLASSIFICATION_TYPE,NORAD_CAT_ID,ELEMENT_SET_NO,REV_AT_EPOCH,BSTAR,MEAN_MOTION_DOT,MEAN_MOTION_DDOT
MONITOR-3 (RS58S),2023-091Q,2026-06-19T13:20:42.791712,15.27881136,.00130642,97.5078,234.0197,93.5503,266.7230,0,U,57180,999,16465,.30910973E-3,.8359E-4,0
MONITOR-4 (RS57S),2023-091S,2026-06-19T12:50:21.926400,15.27966698,.00130626,97.5073,233.9698,93.9516,266.3217,0,U,57182,999,16465,.32545314E-3,.8828E-4,0
MONITOR-2 (RS39S),2023-091U,2026-06-19T13:15:40.418496,15.18928724,.00127707,97.5068,228.8204,103.9924,256.2731,0,U,57184,999,16431,.18285286E-3,.3756E-4,0
SVYATOBOR 1 (RS60S),2023-091X,2026-06-19T13:12:07.578144,15.26648262,.00108355,97.5084,234.3804,87.4908,272.7571,0,U,57187,999,16467,.27231661E-3,.7077E-4,0
HORS 1,2023-091Y,2026-06-19T12:51:03.935808,15.26755485,.00102901,97.5062,234.1277,87.4076,272.8340,0,U,57188,999,16467,.28351676E-3,.7394E-4,0
VIZARD-METEO (RS38S),2023-091Z,2026-06-19T13:23:26.019456,15.36088134,.00081189,97.5087,240.0907,70.6523,289.5598,0,U,57189,999,16505,.39140478E-3,.13698E-3,0
SITRO-AIS 6 (CHIRKIN),2023-091AC,2026-06-19T12:58:20.095104,15.25970680,.00130956,97.5062,233.5691,99.2926,260.9794,0,U,57192,999,16464,.30575762E-3,.78E-4,0
SITRO-AIS 8 (ANOKHIN),2023-091AD,2026-06-19T13:39:19.216224,15.32190853,.00117409,97.5051,236.0896,92.7843,267.4742,0,U,57193,999,16481,.38120346E-3,.11798E-3,0
SITRO-AIS 7 (FARTUSHNIY),2023-091AE,2026-06-19T11:29:06.948960,15.25656984,.00129573,97.5059,233.3307,100.4109,259.8590,0,U,57194,999,16462,.29202383E-3,.7376E-4,0
AVION KALUGA 650,2023-091AF,2026-06-19T14:20:13.125696,15.20373529,.00119275,97.5085,230.1642,102.1133,258.1439,0,U,57195,999,16439,.21100172E-3,.4532E-4,0
HORS 2,2023-091AG,2026-06-19T13:56:42.351936,15.31941645,.00092296,97.5083,237.6434,80.8050,279.4235,0,U,57196,999,16489,.33714267E-3,.10334E-3,0
A-SEANSAT-PG1,2023-091AH,2026-06-19T13:12:21.765024,15.37026449,.00081507,97.5075,240.1822,78.1681,282.0477,0,U,57197,999,16507,.40272788E-3,.14531E-3,0
SITRO-AIS 10 (BURDAEV),2023-091AK,2026-06-19T11:03:00.295776,15.38684557,.00073524,97.5075,241.0571,73.4214,286.7838,0,U,57199,999,16511,.44215807E-3,.16845E-3,0
SITRO-AIS 9 (SHCHUKIN),2023-091AM,2026-06-19T13:15:44.724672,15.38192058,.00076103,97.5074,240.8798,73.4458,286.7623,0,U,57201,999,16511,.42419738E-3,.159E-3,0
UTMN 2 (RS27S),2023-091AP,2026-06-19T13:01:29.658432,15.32099362,.00091469,97.5083,237.7966,76.7848,283.4414,0,U,57203,999,16490,.33536925E-3,.1033E-3,0
SITRO-AIS 12 (SMIRENNIY),2023-091AQ,2026-06-19T13:01:35.499936,15.38485681,.00071167,97.5087,241.3383,68.4056,291.7947,0,U,57204,999,16513,.43179338E-3,.1634E-3,0
SITRO-AIS 11 (SHEFFER),2023-091AU,2026-06-19T13:19:58.309536,15.38912254,.00070086,97.5085,241.5995,68.2793,291.9198,0,U,57208,999,16515,.43659127E-3,.16755E-3,0
H2SAT (HEINRICH HERTZ),2023-093A,2026-06-18T14:38:12.691104,1.00270922,.00008425,0.0587,104.5799,91.9025,290.6226,0,U,57213,999,1093,0,-.4E-7,0
KUZGTU 1 (RS47S),2023-091AV,2026-06-19T14:02:21.033024,15.29905552,.00122599,97.5059,235.0894,90.6815,269.5830,0,U,57217,999,16474,.32240291E-3,.928E-4,0
QIANKUN-1,2023-103B,2026-06-15T08:46:25.019040,16.08420909,.00293788,96.1468,211.3446,145.9035,214.4147,0,U,57422,999,16700,.23232943E-4,.20233E-3,.1838074E-5
FENGYUN 3F,2023-111A,2026-06-19T15:38:44.081376,14.19939531,.00015886,98.6835,240.6147,91.5910,268.5449,0,U,57490,999,14921,.41539512E-4,.45E-6,0
HJ-2F,2023-116A,2026-06-19T14:51:01.283904,15.22349182,.00096173,97.3845,175.7950,44.9469,315.2544,0,U,57519,999,15912,.28240878E-3,.6453E-4,0
XRISM,2023-137A,2026-06-19T13:35:42.133632,15.12484218,.00079343,31.0032,344.1895,347.4528,12.5912,0,U,57800,999,15322,.21890109E-3,.4004E-4,0
METEOR-M2 4,2024-039A,2026-06-19T15:29:22.965216,14.22429736,.00074226,98.7011,129.9125,154.1905,205.9644,0,U,59051,999,11961,.20610968E-4,.2E-7,0
GRBBETA,2024-128C,2026-06-19T13:01:48.406368,15.06650427,.00403525,61.9881,208.0011,135.1213,225.3155,0,U,60237,999,10662,.15906067E-3,.2191E-4,0
TRANSPORTER-11 OBJECT A,2024-149A,2026-06-19T12:05:00.367008,15.32937686,.0003062,97.3726,250.4261,184.9198,175.2015,0,U,60468,999,10241,.23372431E-3,.7358E-4,0
WARATAH SEED-1,2024-149B,2026-06-19T04:41:59.372448,15.35988179,.00016496,97.3687,250.7722,172.0188,188.1082,0,U,60469,999,10242,.31735493E-3,.11043E-3,0
PHISAT 2,2024-149C,2026-06-19T11:10:15.378528,15.31089870,.00013144,97.3754,249.6692,168.9110,191.2161,0,U,60470,999,10234,.19288479E-3,.5716E-4,0
LEMUR-2-TOMATOKECHUP,2024-149D,2026-06-19T04:36:24.573312,15.36068984,.00016439,97.3797,252.2439,171.4844,188.6428,0,U,60471,999,10247,.26838184E-3,.9349E-4,0
